[{"OBJECT_NAME":"TRANSPORTER-15 OBJECT M","OBJECT_ID":"2025-276M","EPOCH":"2026-03-09T17:11:37.076640","MEAN_MOTION":15.2015215,"ECCENTRICITY":0.00045268,"INCLINATION":97.4249,"RA_OF_ASC_NODE":144.0134,"ARG_OF_PERICENTER":15.0949,"MEAN_ANOMALY":345.0421,"EPHEMERIS_TYPE":0,"CLASSIFICATION_TYPE":"U","NORAD_CAT_ID":66677,"ELEMENT_SET_NO":999,"REV_AT_EPOCH":1532,"BSTAR":0.00078021993,"MEAN_MOTION_DOT":0.0001684,"MEAN_MOTION_DDOT":0},{"OBJECT_NAME":"FLOCK 4H-36","OBJECT_ID":"2025-276CB","EPOCH":"2026-03-09T17:10:47.526240","MEAN_MOTION":15.19196799,"ECCENTRICITY":0.00014584,"INCLINATION":97.4313,"RA_OF_ASC_NODE":144.1032,"ARG_OF_PERICENTER":333.1863,"MEAN_ANOMALY":26.9296,"EPHEMERIS_TYPE":0,"CLASSIFICATION_TYPE":"U","NORAD_CAT_ID":66739,"ELEMENT_SET_NO":999,"REV_AT_EPOCH":1532,"BSTAR":0.0003489892,"MEAN_MOTION_DOT":7.279e-5,"MEAN_MOTION_DDOT":0}]
